NORAD_CAT_ID,OBJECT_NAME,OBJECT_TYPE,EPOCH,MEAN_MOTION,ECCENTRICITY,INCLINATION,RA_OF_ASC_NODE,ARG_OF_PERICENTER,MEAN_ANOMALY,BSTAR,MEAN_MOTION_DOT,MEAN_MOTION_DDOT,TLE_LINE0,TLE_LINE1,TLE_LINE2,SEMIMAJOR_AXIS,PERIOD,APOGEE,PERIGEE,DECAYED
54015.0,STARLINK-5055,PAYLOAD,2023-12-05 04:32:15,15.08884652,0.0002132,53.2165,309.7071,84.7715,275.3521,0.0013268,0.00020917,0.0,0 STARLINK-5055,1 54015U 22125BD  23339.18907193  .00020917  00000-0  13268-2 0  9996,2 54015  53.2165 309.7071 0002132  84.7715 275.3521 15.08884652 64985,6917.744,95.435,541.084,538.134,0.0
54015.0,STARLINK-5055,PAYLOAD,2023-12-05 22:01:29,15.08875706,0.0002406,53.2163,306.4393,86.6741,273.4526,0.00072852,0.00011337,0.0,0 STARLINK-5055,1 54015U 22125BD  23339.91770504  .00011337  00000-0  72852-3 0  9992,2 54015  53.2163 306.4393 0002406  86.6741 273.4526 15.08875706 65095,6917.771,95.435,541.301,537.972,0.0
54015.0,STARLINK-5055,PAYLOAD,2023-12-06 04:23:01,15.08859734,0.0002437,53.2173,305.2405,120.1124,240.011,-3.9167e-05,-9.12e-06,0.0,0 STARLINK-5055,1 54015U 22125BD  23340.18266083 -.00000912  00000-0 -39167-4 0  9997,2 54015  53.2173 305.2405 0002437 120.1124 240.0110 15.08859734 65182,6917.82,95.436,541.371,537.999,0.0
54015.0,STARLINK-5055,PAYLOAD,2023-12-06 12:19:57,15.08851717,0.0002102,53.2169,303.7629,74.4121,285.7103,0.00011946,1.614e-05,0.0,0 STARLINK-5055,1 54015U 22125BD  23340.51386514  .00001614  00000-0  11946-3 0  9998,2 54015  53.2169 303.7629 0002102  74.4121 285.7103 15.08851717 65186,6917.845,95.437,541.164,538.255,0.0
54015.0,STARLINK-5055,PAYLOAD,2023-12-06 21:52:17,15.08826475,0.0001967,53.2179,301.9763,87.0945,273.0272,0.00019513,2.818e-05,0.0,0 STARLINK-5055,1 54015U 22125BD  23340.91131126  .00002818  00000-0  19513-3 0  9994,2 54015  53.2179 301.9763 0001967  87.0945 273.0272 15.08826475 65245,6917.922,95.438,541.147,538.426,0.0
54015.0,STARLINK-5055,PAYLOAD,2023-12-07 04:13:49,15.0883321,0.0002179,53.2168,300.7876,93.0153,267.1088,0.00050978,7.833e-05,0.0,0 STARLINK-5055,1 54015U 22125BD  23341.17627278  .00007833  00000-0  50978-3 0  9993,2 54015  53.2168 300.7876 0002179  93.0153 267.1088 15.08833210 65333,6917.901,95.438,541.274,538.259,0.0
54015.0,STARLINK-5055,PAYLOAD,2023-12-07 07:24:36,15.08836812,0.0002077,53.2167,300.191,98.4048,261.718,0.00061148,9.456e-05,0.0,0 STARLINK-5055,1 54015U 22125BD  23341.30875233  .00009456  00000-0  61148-3 0  9998,2 54015  53.2167 300.1910 0002077  98.4048 261.7180 15.08836812 65305,6917.89,95.438,541.192,538.318,0.0
54015.0,STARLINK-5055,PAYLOAD,2023-12-08 07:15:23,15.08843517,0.0002097,53.2169,295.7296,93.9581,266.1651,0.0004431,6.772e-05,0.0,0 STARLINK-5055,1 54015U 22125BD  23342.30235498  .00006772  00000-0  44310-3 0  9992,2 54015  53.2169 295.7296 0002097  93.9581 266.1651 15.08843517 65501,6917.87,95.437,541.185,538.284,0.0
54015.0,STARLINK-5055,PAYLOAD,2023-12-09 03:55:23,15.0884741,0.0002024,53.2165,291.863,103.1586,256.9632,0.00026428,3.921e-05,0.0,0 STARLINK-5055,1 54015U 22125BD  23343.16347139  .00003921  00000-0  26428-3 0  9996,2 54015  53.2165 291.8630 0002024 103.1586 256.9632 15.08847410 65631,6917.858,95.437,541.123,538.323,0.0
54015.0,STARLINK-5055,PAYLOAD,2023-12-09 19:49:15,15.08840013,0.0002147,53.2171,288.8903,98.583,261.5406,3.4647e-05,2.63e-06,0.0,0 STARLINK-5055,1 54015U 22125BD  23343.82587368  .00000263  00000-0  34647-4 0  9998,2 54015  53.2171 288.8903 0002147  98.5830 261.5406 15.08840013 65736,6917.88,95.438,541.231,538.26,0.0
54015.0,STARLINK-5055,PAYLOAD,2023-12-10 05:21:34,15.08839171,0.0002115,53.2171,287.1062,96.602,263.5213,1.4583e-05,-5.6e-07,0.0,0 STARLINK-5055,1 54015U 22125BD  23344.22331459 -.00000056  00000-0  14583-4 0  9999,2 54015  53.2171 287.1062 0002115  96.6020 263.5213 15.08839171 65741,6917.883,95.438,541.211,538.285,0.0
54015.0,STARLINK-5055,PAYLOAD,2023-12-11 03:36:58,15.08844351,0.0002001,53.2165,282.9436,87.4415,272.6806,3.4937e-05,2.68e-06,0.0,0 STARLINK-5055,1 54015U 22125BD  23345.15067406  .00000268  00000-0  34937-4 0  9999,2 54015  53.2165 282.9436 0002001  87.4415 272.6806 15.08844351 65938,6917.867,95.437,541.116,538.348,0.0
54015.0,STARLINK-5055,PAYLOAD,2023-12-12 03:27:45,15.08843503,0.0002115,53.2172,278.4852,80.6355,279.4876,0.00016353,2.316e-05,0.0,0 STARLINK-5055,1 54015U 22125BD  23346.14427660  .00002316  00000-0  16353-3 0  9998,2 54015  53.2172 278.4852 0002115  80.6355 279.4876 15.08843503 66034,6917.87,95.437,541.198,538.272,0.0
54015.0,STARLINK-5055,PAYLOAD,2023-12-12 19:21:36,15.08843143,0.0001872,53.216,275.5105,96.0782,264.0424,9.9282e-05,1.292e-05,0.0,0 STARLINK-5055,1 54015U 22125BD  23346.80667614  .00001292  00000-0  99282-4 0  9991,2 54015  53.2160 275.5105 0001872  96.0782 264.0424 15.08843143 66189,6917.871,95.437,541.031,538.441,0.0
54015.0,STARLINK-5055,PAYLOAD,2023-12-13 01:43:09,15.08848416,0.0001874,53.2162,274.3211,95.5875,264.5331,0.00012381,1.683e-05,0.0,0 STARLINK-5055,1 54015U 22125BD  23347.07163336  .00001683  00000-0  12381-3 0  9991,2 54015  53.2162 274.3211 0001874  95.5875 264.5331 15.08848416 66174,6917.855,95.437,541.016,538.423,0.0
54015.0,STARLINK-5055,PAYLOAD,2023-12-13 22:23:10,15.08836676,0.00019,53.2163,270.4558,102.0068,258.1137,0.00025352,3.749e-05,0.0,0 STARLINK-5055,1 54015U 22125BD  23347.93275791  .00003749  00000-0  25352-3 0  9992,2 54015  53.2163 270.4558 0001900 102.0068 258.1137 15.08836676 66307,6917.891,95.438,541.07,538.441,0.0
54015.0,STARLINK-5055,PAYLOAD,2023-12-14 01:33:56,15.08847296,0.0001864,53.2164,269.8614,92.4615,267.6591,7.0799e-05,8.39e-06,0.0,0 STARLINK-5055,1 54015U 22125BD  23348.06523315  .00000839  00000-0  70799-4 0  9998,2 54015  53.2164 269.8614 0001864  92.4615 267.6591 15.08847296 66378,6917.858,95.437,541.013,538.434,0.0
54015.0,STARLINK-5055,PAYLOAD,2023-12-14 22:13:56,15.08844934,0.0001857,53.2157,265.9951,88.1384,271.9821,9.7045e-05,1.257e-05,0.0,0 STARLINK-5055,1 54015U 22125BD  23348.92635272  .00001257  00000-0  97045-4 0  9997,2 54015  53.2157 265.9951 0001857  88.1384 271.9821 15.08844934 66457,6917.865,95.437,541.015,538.446,0.0
54015.0,STARLINK-5055,PAYLOAD,2023-12-15 01:24:42,15.08848612,0.0001882,53.2158,265.4002,88.4935,271.6273,0.00014308,1.99e-05,0.0,0 STARLINK-5055,1 54015U 22125BD  23349.05883024  .00001990  00000-0  14308-3 0  9996,2 54015  53.2158 265.4002 0001882  88.4935 271.6273 15.08848612 66470,6917.854,95.437,541.021,538.417,0.0
54015.0,STARLINK-5055,PAYLOAD,2023-12-15 22:04:44,15.08833543,0.0002374,53.2166,261.5336,124.1344,235.9874,-9.6432e-05,-1.823e-05,0.0,0 STARLINK-5055,1 54015U 22125BD  23349.91995716 -.00001823  00000-0 -96432-4 0  9999,2 54015  53.2166 261.5336 0002374 124.1344 235.9874 15.08833543 66607,6917.9,95.438,541.407,538.123,0.0
54015.0,STARLINK-5055,PAYLOAD,2023-12-16 01:15:30,15.08831894,0.0001892,53.2169,260.9414,107.8012,252.3187,-5.9479e-05,-1.234e-05,0.0,0 STARLINK-5055,1 54015U 22125BD  23350.05244056 -.00001234  00000-0 -59479-4 0  9996,2 54015  53.2169 260.9414 0001892 107.8012 252.3187 15.08831894 66678,6917.905,95.438,541.079,538.461,0.0
54015.0,STARLINK-5055,PAYLOAD,2023-12-16 21:55:31,15.08840413,0.0001664,53.2161,257.0766,100.534,259.584,6.702e-06,-1.81e-06,0.0,0 STARLINK-5055,1 54015U 22125BD  23350.91355924 -.00000181  00000-0  67020-5 0  9999,2 54015  53.2161 257.0766 0001664 100.5340 259.5840 15.08840413 66759,6917.879,95.438,540.895,538.593,0.0
54015.0,STARLINK-5055,PAYLOAD,2023-12-16 23:30:54,15.088418,0.000167,53.216,256.7781,102.1165,258.0014,2.1066e-05,4.7e-07,0.0,0 STARLINK-5055,1 54015U 22125BD  23350.97979844  .00000047  00000-0  21066-4 0  9997,2 54015  53.2160 256.7781 0001670 102.1165 258.0014 15.08841800 66816,6917.875,95.437,540.895,538.585,0.0
54015.0,STARLINK-5055,PAYLOAD,2023-12-17 21:46:18,15.08849549,0.0001541,53.2156,252.6134,95.2152,264.9016,0.00028694,4.283e-05,0.0,0 STARLINK-5055,1 54015U 22125BD  23351.90715579  .00004283  00000-0  28694-3 0  9993,2 54015  53.2156 252.6134 0001541  95.2152 264.9016 15.08849549 66909,6917.851,95.437,540.782,538.65,0.0
54015.0,STARLINK-5055,PAYLOAD,2023-12-18 00:57:04,15.08858569,0.0001557,53.2154,252.0201,92.1566,267.9605,0.00044518,6.808e-05,0.0,0 STARLINK-5055,1 54015U 22125BD  23352.03963293  .00006808  00000-0  44518-3 0  9994,2 54015  53.2154 252.0201 0001557  92.1566 267.9605 15.08858569 66974,6917.824,95.436,540.766,538.612,0.0
54015.0,STARLINK-5055,PAYLOAD,2023-12-18 21:37:05,15.08837595,0.0001572,53.2157,248.1543,109.7246,250.3915,-1.8371e-05,-5.8e-06,0.0,0 STARLINK-5055,1 54015U 22125BD  23352.90076066 -.00000580  00000-0 -18371-4 0  9995,2 54015  53.2157 248.1543 0001572 109.7246 250.3915 15.08837595 67055,6917.888,95.438,540.84,538.665,0.0
54015.0,STARLINK-5055,PAYLOAD,2023-12-19 00:47:52,15.08835552,0.0001246,53.2151,247.5582,95.039,265.0744,-3.4413e-05,-8.35e-06,0.0,0 STARLINK-5055,1 54015U 22125BD  23353.03324151 -.00000835  00000-0 -34413-4 0  9999,2 54015  53.2151 247.5582 0001246  95.0390 265.0744 15.08835552 67122,6917.894,95.438,540.621,538.897,0.0
54015.0,STARLINK-5055,PAYLOAD,2023-12-20 00:38:39,15.08845419,0.0001245,53.2146,243.1014,93.7203,266.3932,0.00064665,0.0001002,0.0,0 STARLINK-5055,1 54015U 22125BD  23354.02684489  .00010020  00000-0  64665-3 0  9998,2 54015  53.2146 243.1014 0001245  93.7203 266.3932 15.08845419 67277,6917.864,95.437,540.59,538.868,0.0
54015.0,STARLINK-5055,PAYLOAD,2023-12-20 21:18:40,15.08847962,0.0001373,53.2148,239.2365,101.972,258.1426,0.00032445,4.881e-05,0.0,0 STARLINK-5055,1 54015U 22125BD  23354.88796319  .00004881  00000-0  32445-3 0  9997,2 54015  53.2148 239.2365 0001373 101.9720 258.1426 15.08847962 67353,6917.856,95.437,540.671,538.771,0.0
54015.0,STARLINK-5055,PAYLOAD,2023-12-20 22:54:03,15.08848077,0.0001343,53.2148,238.9405,101.0942,259.0201,0.00032465,4.884e-05,0.0,0 STARLINK-5055,1 54015U 22125BD  23354.95420314  .00004884  00000-0  32465-3 0  9999,2 54015  53.2148 238.9405 0001343 101.0942 259.0201 15.08848077 67414,6917.856,95.437,540.65,538.792,0.0
